QIANFAN-81              
1 63167U 25046J   25215.91382001  .00000134  00000+0  18851-3 0  9992
2 63167  88.9860 333.3526 0016408 135.4790 224.7683 13.50960633 29826
QIANFAN-82              
1 63168U 25046K   25215.94659694  .00000036  00000+0  36467-4 0  9996
2 63168  88.9859 333.3926 0014417 141.9491 218.2681 13.50957233 29814
QIANFAN-83              
1 63169U 25046L   25215.85253863  .00000184  00000+0  22339-3 0  9991
2 63169  88.9859 333.4349 0015829 135.6422 224.6006 13.61931607 29784
QIANFAN-84              
1 63170U 25046M   25215.90139274  .00000152  00000+0  21597-3 0  9998
2 63170  88.9859 333.5304 0017437 139.6159 220.6291 13.50964410 29739
QIANFAN-85              
1 63171U 25046N   25215.89733982  .00000135  00000+0  19093-3 0  9992
2 63171  88.9859 333.4031 0014773 141.2626 218.9587 13.50958552 29800
QIANFAN-86              
1 63172U 25046P   25215.90556771  .00000146  00000+0  20773-3 0  9993
2 63172  88.9861 333.2613 0012584 144.2537 215.9459 13.50958872 29888
QIANFAN-87              
1 63173U 25046Q   25215.87665624  .00000146  00000+0  20735-3 0  9996
2 63173  88.9857 333.3809 0013378 140.1276 220.0860 13.50956710 29814
QIANFAN-88              
1 63174U 25046R   25215.89330943  .00000099  00000+0  13389-3 0  9996
2 63174  88.9859 333.3307 0013585 147.0981 213.1019 13.50963345 29843
